0 COSMOS 375 DEB
1 04629U 70091J   13282.81621567 -.00000081  00000-0  98650-5 0  9117
2 04629 062.8665 190.7577 0900491 283.7039 141.2314 13.00109039 26580
0 COSMOS 375 DEB
1 04629U 70091J   13287.14747438  .00000105  00000-0  93899-4 0  9131
2 04629 062.8658 180.1235 0900527 284.1837 253.1992 13.00108814 27145
0 COSMOS 375 DEB
1 04629U 70091J   13289.28420265  .00000106  00000-0  94748-4 0  9140
2 04629 062.8652 174.8773 0900565 284.4205 173.9139 13.00110168 27428
0 COSMOS 375 DEB
1 04629U 70091J   13291.28634500 -.00000002  00000-0  45488-4 0  9156
2 04629 062.8649 169.9615 0900617 284.6434 184.7158 13.00111868 27685
0 COSMOS 375 DEB
1 04629U 70091J   13293.81903670  .00000005  00000-0  48855-4 0  9168
2 04629 062.8647 163.7428 0900680 284.9246 158.7150 13.00112464 28015
0 COSMOS 375 DEB
1 04629U 70091J   13296.12577788  .00000135  00000-0  10745-3 0  9173
2 04629 062.8646 158.0790 0900701 285.1819 155.1839 13.00112051 28316
